{
  "type": "Feature",
  "properties": {
    "name": "청계천",
    "source": "OpenStreetMap contributors",
    "source_url": "https://www.openstreetmap.org",
    "osm_way_ids": [
      368276771,
      769631455
    ],
    "osm_base": "2026-09-12T15:46:21Z",
    "license": "ODbL-1.0",
    "description": "청계천 수로 중심선입니다. 공식 하천 경계나 산책로 경계가 아닙니다."
  },
  "geometry": {
    "type": "LineString",
    "coordinates": [
      [
        126.9785975,
        37.5691438
      ],
      [
        126.9786757,
        37.5691449
      ],
      [
        126.9794597,
        37.5691067
      ],
      [
        126.9801836,
        37.5690719
      ],
      [
        126.982453,
        37.5688944
      ],
      [
        126.9834423,
        37.568811
      ],
      [
        126.9852214,
        37.5684594
      ],
      [
        126.9866673,
        37.5681104
      ],
      [
        126.987812,
        37.5680958
      ],
      [
        126.988469,
        37.5680902
      ],
      [
        126.9886992,
        37.5680829
      ],
      [
        126.9901819,
        37.5681529
      ],
      [
        126.9909605,
        37.5682116
      ],
      [
        126.9919388,
        37.5682853
      ],
      [
        126.9925302,
        37.5683299
      ],
      [
        126.9930783,
        37.5683708
      ],
      [
        126.9949392,
        37.5685097
      ],
      [
        126.995596,
        37.5685645
      ],
      [
        126.9967778,
        37.5686863
      ],
      [
        126.9977791,
        37.5688006
      ],
      [
        126.9980552,
        37.5688467
      ],
      [
        127.0000376,
        37.5692406
      ],
      [
        127.0015341,
        37.5695268
      ],
      [
        127.0017919,
        37.5695761
      ],
      [
        127.0022487,
        37.5695905
      ],
      [
        127.0025823,
        37.5695922
      ],
      [
        127.003151,
        37.5695969
      ],
      [
        127.00445,
        37.5696019
      ],
      [
        127.0062675,
        37.5696422
      ],
      [
        127.0064916,
        37.5696472
      ],
      [
        127.008417,
        37.5697478
      ],
      [
        127.0092589,
        37.5697918
      ],
      [
        127.0093071,
        37.5697923
      ],
      [
        127.0100308,
        37.5697682
      ],
      [
        127.0105226,
        37.5697636
      ],
      [
        127.0123521,
        37.5697464
      ],
      [
        127.0149692,
        37.5697417
      ],
      [
        127.0153425,
        37.569741
      ],
      [
        127.0155904,
        37.5697406
      ],
      [
        127.0156491,
        37.5697458
      ],
      [
        127.0160978,
        37.5697854
      ],
      [
        127.0167624,
        37.5699516
      ],
      [
        127.0175041,
        37.5702226
      ],
      [
        127.0188358,
        37.5709441
      ],
      [
        127.0191272,
        37.5710854
      ],
      [
        127.0203224,
        37.571584
      ],
      [
        127.0211015,
        37.571815
      ],
      [
        127.0218813,
        37.5719088
      ],
      [
        127.0223862,
        37.5718956
      ],
      [
        127.0228377,
        37.5718142
      ],
      [
        127.0243385,
        37.5714025
      ],
      [
        127.025239,
        37.5711508
      ],
      [
        127.0252678,
        37.5711428
      ],
      [
        127.0257493,
        37.5710083
      ],
      [
        127.0276164,
        37.5704501
      ],
      [
        127.0296375,
        37.5698946
      ],
      [
        127.0305836,
        37.569714
      ],
      [
        127.0308563,
        37.5697059
      ],
      [
        127.0311691,
        37.5697223
      ],
      [
        127.0316684,
        37.5698362
      ],
      [
        127.0319956,
        37.5699425
      ],
      [
        127.0322451,
        37.5700403
      ],
      [
        127.0326045,
        37.5701807
      ],
      [
        127.0336667,
        37.5708695
      ],
      [
        127.0346108,
        37.5715157
      ],
      [
        127.0355345,
        37.5719665
      ],
      [
        127.0358602,
        37.5720608
      ],
      [
        127.036999,
        37.5723576
      ],
      [
        127.0397107,
        37.5723302
      ],
      [
        127.0405797,
        37.5721941
      ],
      [
        127.0414891,
        37.5719572
      ],
      [
        127.0420925,
        37.571786
      ],
      [
        127.0437369,
        37.5711469
      ],
      [
        127.044603,
        37.570706
      ],
      [
        127.0456793,
        37.5700839
      ],
      [
        127.0459314,
        37.5698602
      ],
      [
        127.0461102,
        37.5696683
      ],
      [
        127.0463249,
        37.5693912
      ],
      [
        127.0464969,
        37.5690405
      ],
      [
        127.0470598,
        37.5680303
      ],
      [
        127.0519481,
        37.5582118
      ],
      [
        127.0521665,
        37.5565427
      ],
      [
        127.0521311,
        37.5560825
      ],
      [
        127.0520176,
        37.5555052
      ],
      [
        127.0517861,
        37.5543278
      ],
      [
        127.0510543,
        37.5531646
      ],
      [
        127.0506623,
        37.5527466
      ]
    ]
  }
}
